TIANMU-1 11             
1 58645U 23205A   24024.42487147  .00007328  00000+0  40748-3 0  9994
2 58645  97.4188  53.2543 0011819 165.5492 194.6080 15.13908577  4605
TIANMU-1 12             
1 58646U 23205B   24024.42855004  .00007796  00000+0  43614-3 0  9990
2 58646  97.4173  53.2436 0010707 161.5442 198.6180 15.13678537  4590
TIANMU-1 13             
1 58647U 23205C   24024.43650214  .00007134  00000+0  40483-3 0  9995
2 58647  97.4202  53.2455 0011120 154.9105 205.2669 15.13196206  4592
TIANMU-1 14             
1 58648U 23205D   24024.42930779  .00007702  00000+0  43157-3 0  9994
2 58648  97.4128  53.2243 0011384 159.0656 201.1043 15.13619590  4591
KZ-1A R/B               
1 58649U 23205E   24023.62412158  .00505160  23467-5  90450-3 0  9999
2 58649  97.4035  55.0968 0147043 283.9946  74.5012 15.84841835  4645
SHIYAN 24C 01           
1 58650U 23206A   24024.47410926  .00005462  00000+0  37100-3 0  9992
2 58650  97.3350  32.1098 0012077 162.4035 197.7613 15.06710908  4447
SHIYAN 24C 02           
1 58651U 23206B   24024.47330527  .00004656  00000+0  31711-3 0  9997
2 58651  97.3354  32.1120 0010196 182.7180 177.3994 15.06694089  4441
SHIYAN 24C 03           
1 58652U 23206C   24024.47403132  .00003629  00000+0  24792-3 0  9991
2 58652  97.3347  32.1082 0011783 180.0031 180.1199 15.06701534  4432
BEIDOU-3 M25            
1 58654U 23207A   24019.50000000 -.00000068  00000+0  00000+0 0  9996
2 58654  55.0020  92.1740 0003594 252.7320 285.8580  1.86231622   453
BEIDOU-3 M26            
1 58655U 23207B   24023.84841003 -.00000052  00000+0  00000+0 0  9998
2 58655  54.9925  92.0143 0004676 245.1634 103.8458  1.86231445   522
YZ-1 R/B                
1 58656U 23207C   24023.18956528 -.00000048  00000+0  00000+0 0  9990
2 58656  55.0492  91.9210 0027960 329.8488  30.0389  1.79266311   509
CZ-3B R/B               
1 58657U 23207D   24023.74397939  .00049283  00000+0  18394-2 0  9999
2 58657  54.9757  77.0719 5785161 179.2746 182.3353  4.44248461  1272
COSMOS 2574             
1 58658U 23209A   24024.48304898  .00034430  00000+0  25239-3 0  9991
2 58658  96.7550 282.8348 0004128 290.6035  69.4788 15.73082055  4430
SL-4 R/B                
1 58659U 23209B   24024.26277987  .00098507  00000+0  62923-3 0  9992
2 58659  96.7581 282.7121 0001774 231.5449 128.5659 15.76070490  4381
TIANMU-1 19             
1 58660U 23208A   24024.49124305  .00008314  00000+0  47073-3 0  9999
2 58660  97.4000 140.8406 0012062 144.9241 215.2787 15.13215085  4272
TIANMU-1 20             
1 58661U 23208B   24024.48328280  .00008736  00000+0  48179-3 0  9993
2 58661  97.3922 140.8216 0011589 156.7701 203.4057 15.14145522  4277
TIANMU-1 21             
1 58662U 23208C   24024.48090833  .00009643  00000+0  52807-3 0  9995
2 58662  97.3968 140.8421 0010622 157.2928 202.8776 15.14379287  4278
TIANMU-1 22             
1 58663U 23208D   24024.47493114  .00009770  00000+0  53028-3 0  9991
2 58663  97.3983 140.8553 0011014 165.9202 194.2340 15.14691374  4274
STARLINK-31113          
1 58668U 23211B   24024.58334491 -.02172014  00000+0 -86708-1 0  9999
2 58668  43.0000 135.7004 0001576 271.7887  75.5538 15.28103398  5289
STARLINK-31128          
1 58669U 23211C   24024.58334491 -.02207244  00000+0 -74904-1 0  9999
2 58669  43.0003 135.5072 0001583 278.5687 149.1012 15.33338237  5077
STARLINK-31083          
1 58670U 23211D   24024.58334491 -.00653454  00000+0 -26546-1 0  9996
2 58670  42.9998 135.7589 0001427 264.0540  60.0200 15.26352698  5181
STARLINK-30828          
1 58671U 23211E   24024.25002315 -.02182723  00000+0 -56193-1 0  9997
2 58671  43.0004 137.2928 0001222 277.6614 154.0605 15.41726475  4751
STARLINK-31104          
1 58672U 23211F   24024.58334491 -.00018101  00000+0 -68395-3 0  9992
2 58672  42.9998 135.7885 0001794 270.6729  41.1938 15.25901984  5287
STARLINK-31131          
1 58673U 23211G   24023.91667824 -.00917251  00000+0 -64145-2 0  9990
2 58673  42.9972 136.0238 0001289 273.5536 310.4044 15.75857927  5252
STARLINK-31124          
1 58674U 23211H   24023.91667824 -.02210272  00000+0 -78446-1 0  9990
2 58674  43.0002 139.4543 0001500 263.4781  17.9120 15.31932477  5149
STARLINK-31126          
1 58675U 23211J   24024.25002315  .00081833  00000+0  31092-2 0  9999
2 58675  42.9999 137.6876 0001273 284.2947 341.9659 15.25849651  5123
STARLINK-31066          
1 58676U 23211K   24024.58334491 -.02091336  00000+0 -70228-1 0  9995
2 58676  42.9999 134.7382 0001610 260.2715 117.1443 15.33478399  5283
STARLINK-31058          
1 58677U 23211L   24024.25002315 -.02161489  00000+0 -79079-1 0  9997
2 58677  43.0001 137.5350 0001487 261.8839  69.5017 15.30887992  5133
STARLINK-31125          
1 58678U 23211M   24024.25002315 -.02184253  00000+0 -55444-1 0  9992
2 58678  43.0004 137.2748 0001312 279.0495 159.9673 15.42146188  5131
STARLINK-31110          
1 58679U 23211N   24024.58334491 -.02205526  00000+0 -79677-1 0  9993
2 58679  43.0002 135.5746 0001516 274.5639 125.5011 15.31363053  5286
STARLINK-31112          
1 58680U 23211P   24024.58334491 -.02202584  00000+0 -76318-1 0  9995
2 58680  43.0004 135.5291 0001589 285.5404 133.2612 15.32676739  5188
STARLINK-31147          
1 58681U 23211Q   24024.58334491 -.02204782  00000+0 -78010-1 0  9999
2 58681  43.0005 135.5521 0001561 278.6027 130.9961 15.32020434  5287
STARLINK-31144          
1 58682U 23211R   24023.00001157 -.02209537  00000+0 -46071-1 0  9991
2 58682  43.0001 144.5107 0001449 278.1303  44.9734 15.48447654  5096
STARLINK-31095          
1 58683U 23211S   24024.58334491 -.02208211  00000+0 -73385-1 0  9992
2 58683  43.0004 135.4879 0001362 278.6205 157.5884 15.33996190  5281
STARLINK-31107          
1 58684U 23211T   24024.58334491 -.02212293  00000+0 -67533-1 0  9996
2 58684  43.0004 135.4130 0001476 280.7225 186.3189 15.36630718  5185
STARLINK-31121          
1 58685U 23211U   24024.25002315 -.02182526  00000+0 -59215-1 0  9991
2 58685  43.0004 137.2777 0001366 272.8886 164.4315 15.40160482  5130
STARLINK-31137          
1 58686U 23211V   24023.00001157 -.02218606  00000+0 -45209-1 0  9994
2 58686  43.0000 144.5063 0001480 283.8098  40.9785 15.49110268  5090
STARLINK-31109          
1 58687U 23211W   24021.81407059  .00107184  00000+0  11787-2 0  9992
2 58687  42.9995 150.9908 0003383 284.6266  75.4223 15.62088206  4855
STARLINK-31139          
1 58688U 23211X   24024.25002315 -.02179088  00000+0 -61757-1 0  9997
2 58688  43.0004 137.3054 0001353 274.9654 151.1780 15.38842308  5235
STARLINK-31106          
1 58689U 23211Y   24024.25002315 -.02170999  00000+0 -65631-1 0  9995
2 58689  43.0002 137.3529 0001459 271.1903 135.6992 15.36863469  5123
HULIANWANG JISHU SHIYAN*
1 58691U 23212A   24024.49028843  .00000066  00000+0  17966-3 0  9992
2 58691  50.0024 328.0400 0007848  26.8756 333.2547 13.86995024  3546
HULIANWANG JISHU SHIYAN*
1 58692U 23212B   24024.48457471  .00000045  00000+0  16152-3 0  9998
2 58692  49.9993 328.0049 0004847  13.5332 346.5695 13.86967354  3543
HULIANWANG JISHU SHIYAN*
1 58693U 23212C   24024.48729631  .00000051  00000+0  16661-3 0  9991
2 58693  50.0007 328.0216 0007025   9.9603 350.1432 13.86993447  3542
XPOSAT                  
1 58694U 24001A   24001.68468223  .00000628  00000+0  00000+0 0  9999
2 58694   5.9870 115.4463 0010488 359.8378  55.4280 14.74838619    62
POEM-3                  
1 58695U 24001B   24004.74596408  .00097489  00000+0  61795-3 0  9990
2 58695   9.6657  72.7054 0007217  17.8593 342.1874 15.74486494   565
OVZON-3                 
1 58698U 24003A   24022.75010417 -.00000255  00000+0  00000+0 0  9991
2 58698  23.2382 291.1845 7316691 186.4042  78.9349  1.43796825    12
FALCON 9 R/B            
1 58699U 24003B   24023.45742415  .00010159  00000+0  55389-2 0  9996
2 58699  26.6398 290.4566 7794860 188.5870 137.8373  1.66445181   337
TIANMU-1 15             
1 58700U 24004A   24024.48692442  .00007817  00000+0  43510-3 0  9999
2 58700  97.4561 208.4725 0010977 185.7526 174.3582 15.13859891  2877
TIANMU-1 16             
1 58701U 24004B   24024.48228440  .00007709  00000+0  42771-3 0  9991
2 58701  97.4485 208.4597 0010965 191.4187 168.6798 15.13980437  2870
TIANMU-1 17             
1 58702U 24004C   24024.47978376  .00007924  00000+0  43342-3 0  9995
2 58702  97.4531 208.4743 0010459 194.5314 165.5619 15.14486911  2866
TIANMU-1 18             
1 58703U 24004D   24024.47487266  .00007996  00000+0  43247-3 0  9992
2 58703  97.4546 208.4846 0011060 204.3356 155.7355 15.14878931  2867
STARLINK-11072 [DTC]    
1 58705U 24002A   24024.50449267  .00078014  00000+0  64137-3 0  9995
2 58705  53.1609 142.8952 0001425 109.5138 250.6034 15.69761627  4533
STARLINK-11075 [DTC]    
1 58706U 24002B   24024.50223744  .00081486  00000+0  67016-3 0  9992
2 58706  53.1611 142.8803 0001119  76.2403 283.8740 15.69735245  4536
STARLINK-11077 [DTC]    
1 58707U 24002C   24024.49761141  .00110503  00000+0  90435-3 0  9993
2 58707  53.1576 142.8442 0001056 100.4266 259.6871 15.69723533  4536
STARLINK-11079 [DTC]    
1 58708U 24002D   24024.49256359  .00109958  00000+0  90197-3 0  9991
2 58708  53.1581 142.8161 0001195  36.8252 323.2848 15.69669896  4535
STARLINK-11076 [DTC]    
1 58709U 24002E   24024.46797178  .00109868  00000+0  90226-3 0  9991
2 58709  53.1592 142.6628 0001435  75.9582 284.1595 15.69642443  4422
STARLINK-11078 [DTC]    
1 58710U 24002F   24024.47022904  .00108615  00000+0  89068-3 0  9993
2 58710  53.1593 142.6777 0001028  95.3520 264.7615 15.69682824  4532
STARLINK-31031          
1 58711U 24002G   24024.48216208  .00063644  00000+0  22919-2 0  9990
2 58711  53.1603 145.6404 0001349  92.8588 267.2566 15.28003073  4392
STARLINK-31029          
1 58712U 24002H   24024.58334491 -.00178758  00000+0 -65734-2 0  9994
2 58712  53.1592 145.5241 0002109  52.5539 324.1577 15.28137096  4402
STARLINK-30973          
1 58713U 24002J   24023.91667824  .00073811  00000+0  26560-2 0  9996
2 58713  53.1594 148.6051 0000969  50.6287 258.6909 15.27958103  4486
